{
  "norad_id": 65757,
  "name": "STARLINK-35211",
  "history": [
    {
      "epoch": "2026-03-28T16:48:16.862688",
      "apogee_km": 475.5699626865735,
      "perigee_km": 474.8458382643894,
      "latitude_deg": -7.098121762374181,
      "longitude_deg": 102.91873631998897,
      "semi_major_axis_km": 6853.344900475481,
      "eccentricity": 5.283e-05,
      "inclination_deg": 53.1594,
      "raan_deg": 244.621,
      "arg_perigee_deg": 322.7368,
      "mean_anomaly_deg": 37.3596,
      "mean_motion_rev_day": 15.30202401
    },
    {
      "epoch": "2026-03-29T03:46:39.142272",
      "apogee_km": 475.62862675426095,
      "perigee_km": 474.6362733378937,
      "latitude_deg": 41.57873492257229,
      "longitude_deg": 146.81015807995573,
      "semi_major_axis_km": 6853.269450046077,
      "eccentricity": 7.24e-05,
      "inclination_deg": 53.1588,
      "raan_deg": 242.4966,
      "arg_perigee_deg": 69.8652,
      "mean_anomaly_deg": 290.2426,
      "mean_motion_rev_day": 15.30227671
    }
  ]
}